[
    {
        "id": "3485",
        "title": "Manoir de la Boulaie",
        "zipCode": "44115",
        "city": "Haute-Goulaine"
    },
    {
        "id": "21741",
        "title": "Restaurant du Palais Royal",
        "zipCode": "75001",
        "city": "Paris"
    },
    {
        "id": "202436",
        "title": "Le Chateaubriand",
        "zipCode": "75011",
        "city": "Paris"
    },
    {
        "id": "76202",
        "title": "Le Chateaubriand",
        "zipCode": "75008",
        "city": "Paris"
    },
    {
        "id": "19211",
        "title": "1741",
        "zipCode": "67000",
        "city": "Strasbourg"
    },
    {
        "id": "8601",
        "title": "Il Carpaccio",
        "zipCode": "75008",
        "city": "Paris"
    },
    {
        "id": "4697",
        "title": "Les Terrasses de Lyon",
        "zipCode": "69005",
        "city": "Lyon"
    },
    {
        "id": "310489",
        "title": "Laurent",
        "zipCode": "75008",
        "city": "Paris"
    },
    {
        "id": "17408",
        "title": "Laurent",
        "zipCode": "75010",
        "city": "Paris"
    },
    {
        "id": "44361",
        "title": "Auberge au Boeuf",
        "zipCode": "67770",
        "city": "Sessenheim"
    },
    {
        "id": "306505",
        "title": "Le Pavillon",
        "zipCode": "62520",
        "city": "Le Touquet-Paris-Plage"
    },
    {
        "id": "378",
        "title": "Ithurria",
        "zipCode": "64250",
        "city": "Ainhoa"
    },
    {
        "id": "32584",
        "title": "L'Auberge de la Pomme",
        "zipCode": "27340",
        "city": "Les Damps"
    },
    {
        "id": "9228",
        "title": "Le Baudelaire",
        "zipCode": "75001",
        "city": "Paris"
    },
    {
        "id": "206163",
        "title": "Julien Binz",
        "zipCode": "68770",
        "city": "Ammerschwihr"
    },
    {
        "id": "5756",
        "title": "Palm Beach",
        "zipCode": "20000",
        "city": "Ajaccio"
    },
    {
        "id": "317277",
        "title": "Quinsou",
        "zipCode": "75006",
        "city": "Paris"
    },
    {
        "id": "77613",
        "title": "Meurin",
        "zipCode": "62350",
        "city": "Busnes"
    },
    {
        "id": "30379",
        "title": "Jin",
        "zipCode": "75001",
        "city": "Paris"
    },
    {
        "id": "211091",
        "title": "Jin",
        "zipCode": "75017",
        "city": "Paris"
    },
    {
        "id": "7715",
        "title": "Terre-Mer",
        "zipCode": "56400",
        "city": "Auray"
    },
    {
        "id": "15418",
        "title": "Les Loges",
        "zipCode": "69005",
        "city": "Lyon"
    },
    {
        "id": "60777",
        "title": "1912",
        "zipCode": "14360",
        "city": "Trouville-sur-Mer"
    },
    {
        "id": "5020",
        "title": "La Fourchette du Printemps",
        "zipCode": "75017",
        "city": "Paris"
    },
    {
        "id": "2185",
        "title": "Antoine",
        "zipCode": "75116",
        "city": "Paris"
    },
    {
        "id": "60859",
        "title": "Nakatani",
        "zipCode": "75007",
        "city": "Paris"
    },
    {
        "id": "22878",
        "title": "Domaine de Clairefontaine",
        "zipCode": "38121",
        "city": "Chonas-l'Amballan"
    },
    {
        "id": "405",
        "title": "Maison Rostang",
        "zipCode": "75017",
        "city": "Paris"
    },
    {
        "id": "5935",
        "title": "Le Grand Cerf",
        "zipCode": "51500",
        "city": "Villers-Allerand"
    },
    {
        "id": "2975",
        "title": "La Table du Gourmet",
        "zipCode": "68340",
        "city": "Riquewihr"
    },
    {
        "id": "8977",
        "title": "Shang Palace",
        "zipCode": "75016",
        "city": "Paris"
    },
    {
        "id": "682",
        "title": "L'Oasis",
        "zipCode": "06210",
        "city": "La Napoule"
    },
    {
        "id": "2579",
        "title": "Auberge de la Charme",
        "zipCode": "21370",
        "city": "Prenois"
    },
    {
        "id": "7135",
        "title": "Les Trois Rochers",
        "zipCode": "29120",
        "city": "Combrit"
    },
    {
        "id": "275457",
        "title": "Armani Ristorante",
        "zipCode": "75006",
        "city": "Paris"
    },
    {
        "id": "275",
        "title": "Le Meurice Alain Ducasse",
        "zipCode": "75001",
        "city": "Paris"
    },
    {
        "id": "618",
        "title": "Le Meurice Alain Ducasse",
        "zipCode": "75001",
        "city": "Paris"
    },
    {
        "id": "1310",
        "title": "Xavier Mathieu",
        "zipCode": "84220",
        "city": "Joucas"
    },
    {
        "id": "324473",
        "title": "Faventia",
        "zipCode": "83440",
        "city": "Tourrettes"
    },
    {
        "id": "66992",
        "title": "Le Jasmin",
        "zipCode": "47140",
        "city": "Saint-Sylvestre-sur-Lot"
    },
    {
        "id": "29826",
        "title": "Loiseau des Ducs",
        "zipCode": "21000",
        "city": "Dijon"
    },
    {
        "id": "6710",
        "title": "Les Rosiers",
        "zipCode": "64200",
        "city": "Biarritz"
    },
    {
        "id": "75533",
        "title": "La Tour des Vents",
        "zipCode": "24240",
        "city": "Monbazillac"
    },
    {
        "id": "291345",
        "title": "114, Faubourg",
        "zipCode": "75008",
        "city": "Paris"
    },
    {
        "id": "6986",
        "title": "Alexandre",
        "zipCode": "30128",
        "city": "Garons"
    },
    {
        "id": "301377",
        "title": "Le Chantecler",
        "zipCode": "06000",
        "city": "Nice"
    },
    {
        "id": "3401",
        "title": "Le Bec au Cauchois",
        "zipCode": "76540",
        "city": "Valmont"
    },
    {
        "id": "38427",
        "title": "Le Saint-Martin",
        "zipCode": "06142 CEDEX",
        "city": "Vence"
    },
    {
        "id": "27058",
        "title": "Initial",
        "zipCode": "14000",
        "city": "Caen"
    },
    {
        "id": "42187",
        "title": "La Promenade",
        "zipCode": "31590",
        "city": "Verfeil"
    },
    {
        "id": "344379",
        "title": "Astrance",
        "zipCode": "75016",
        "city": "Paris"
    },
    {
        "id": "23303",
        "title": "La Table de Nans",
        "zipCode": "13600",
        "city": "La Ciotat"
    },
    {
        "id": "5727",
        "title": "Mavrommatis",
        "zipCode": "75005",
        "city": "Paris"
    },
    {
        "id": "291883",
        "title": "La Table de l'Alpaga",
        "zipCode": "74120",
        "city": "Megève"
    },
    {
        "id": "5632",
        "title": "La Licorne Royale",
        "zipCode": "27480",
        "city": "Lyons-la-Forêt"
    },
    {
        "id": "18939",
        "title": "Le Bistro des Saveurs",
        "zipCode": "67210",
        "city": "Obernai"
    },
    {
        "id": "53046",
        "title": "Sur Mesure par Thierry Marx",
        "zipCode": "75001",
        "city": "Paris"
    },
    {
        "id": "71542",
        "title": "Au Crocodile",
        "zipCode": "67000",
        "city": "Strasbourg"
    },
    {
        "id": "23255",
        "title": "Auberge de la Tour",
        "zipCode": "15220",
        "city": "Marcolès"
    },
    {
        "id": "9759",
        "title": "Le Carrousel",
        "zipCode": "63350",
        "city": "Maringues"
    },
    {
        "id": "7130",
        "title": "Le Clos des Sens",
        "zipCode": "74940",
        "city": "Annecy-le-Vieux"
    },
    {
        "id": "6437",
        "title": "L'Atelier du Peintre",
        "zipCode": "68000",
        "city": "Colmar"
    },
    {
        "id": "2819",
        "title": "Les Hautes Roches",
        "zipCode": "37210",
        "city": "Rochecorbon"
    },
    {
        "id": "289175",
        "title": "La Grande Maison de Bernard Magrez",
        "zipCode": "33000",
        "city": "Bordeaux"
    },
    {
        "id": "38024",
        "title": "La Nouvelle Auberge",
        "zipCode": "68230",
        "city": "Wihr-au-Val"
    },
    {
        "id": "21632",
        "title": "L'Essentiel",
        "zipCode": "14800",
        "city": "Deauville"
    },
    {
        "id": "46885",
        "title": "Le Gambetta",
        "zipCode": "49400",
        "city": "Saumur"
    },
    {
        "id": "25896",
        "title": "Benoit",
        "zipCode": "75004",
        "city": "Paris"
    },
    {
        "id": "31008",
        "title": "Alcyone",
        "zipCode": "13002",
        "city": "Marseille"
    },
    {
        "id": "53038",
        "title": "Le Gabriel",
        "zipCode": "75008",
        "city": "Paris"
    },
    {
        "id": "15068",
        "title": "Au Vieux Couvent",
        "zipCode": "67860",
        "city": "Rhinau"
    },
    {
        "id": "2714",
        "title": "Auberge des Templiers",
        "zipCode": "45290",
        "city": "Boismorand"
    },
    {
        "id": "269931",
        "title": "Les Jardins de l'Espadon",
        "zipCode": "75001",
        "city": "Paris"
    },
    {
        "id": "3507",
        "title": "Hostellerie de Levernois",
        "zipCode": "21200",
        "city": "Levernois"
    },
    {
        "id": "6792",
        "title": "Le Domaine de la Corniche",
        "zipCode": "78270",
        "city": "Rolleboise"
    },
    {
        "id": "276169",
        "title": "Ken Kawasaki",
        "zipCode": "75018",
        "city": "Paris"
    },
    {
        "id": "9572",
        "title": "Le Brittany",
        "zipCode": "29680",
        "city": "Roscoff"
    },
    {
        "id": "347931",
        "title": "SEPT",
        "zipCode": "31000",
        "city": "Toulouse"
    },
    {
        "id": "7876",
        "title": "Mon Plaisir",
        "zipCode": "25190",
        "city": "Chamesol"
    },
    {
        "id": "387",
        "title": "Le Mascaret",
        "zipCode": "50560",
        "city": "Blainville-sur-Mer"
    },
    {
        "id": "205419",
        "title": "La Dame de Pic",
        "zipCode": "75001",
        "city": "Paris"
    },
    {
        "id": "209577",
        "title": "Restaurant H",
        "zipCode": "75004",
        "city": "Paris"
    },
    {
        "id": "15937",
        "title": "Restaurant H",
        "zipCode": "75015",
        "city": "Paris"
    },
    {
        "id": "7133",
        "title": "Le Moulin du Roc",
        "zipCode": "24530",
        "city": "Champagnac-de-Belair"
    },
    {
        "id": "2740",
        "title": "Le Manoir du Lys",
        "zipCode": "61140",
        "city": "Bagnoles-de-l'Orne"
    },
    {
        "id": "5346",
        "title": "L'Orangerie",
        "zipCode": "75004",
        "city": "Paris"
    },
    {
        "id": "4988",
        "title": "Le Jardin des Remparts",
        "zipCode": "21200",
        "city": "Beaune"
    },
    {
        "id": "75043",
        "title": "Prairial",
        "zipCode": "69001",
        "city": "Lyon"
    },
    {
        "id": "3303",
        "title": "Le Relais Bernard Loiseau",
        "zipCode": "21210",
        "city": "Saulieu"
    },
    {
        "id": "209193",
        "title": "Ed.Em",
        "zipCode": "21190",
        "city": "Chassagne-Montrachet"
    },
    {
        "id": "272053",
        "title": "Divellec",
        "zipCode": "75007",
        "city": "Paris"
    },
    {
        "id": "11295",
        "title": "Qui plume la Lune",
        "zipCode": "75011",
        "city": "Paris"
    },
    {
        "id": "60418",
        "title": "Apicius",
        "zipCode": "75008",
        "city": "Paris"
    },
    {
        "id": "63032",
        "title": "Hexagone",
        "zipCode": "75116",
        "city": "Paris"
    },
    {
        "id": "6655",
        "title": "Clovis",
        "zipCode": "06140",
        "city": "Tourrettes-sur-Loup"
    },
    {
        "id": "6448",
        "title": "Les Bacchanales",
        "zipCode": "06140",
        "city": "Vence"
    },
    {
        "id": "31795",
        "title": "Auberge du Vert Mont",
        "zipCode": "59299",
        "city": "Boeschepe"
    },
    {
        "id": "337449",
        "title": "Comice",
        "zipCode": "75016",
        "city": "Paris"
    },
    {
        "id": "25901",
        "title": "Hostellerie de l'Abbaye de la Celle",
        "zipCode": "83170",
        "city": "La Celle"
    },
    {
        "id": "317587",
        "title": "Pertinence",
        "zipCode": "75007",
        "city": "Paris"
    },
    {
        "id": "2998",
        "title": "Christopher Coutanceau",
        "zipCode": "17000",
        "city": "La Rochelle"
    },
    {
        "id": "200546",
        "title": "Sylvestre",
        "zipCode": "75007",
        "city": "Paris"
    },
    {
        "id": "2591",
        "title": "La Table des Merville",
        "zipCode": "31320",
        "city": "Castanet-Tolosan"
    },
    {
        "id": "73961",
        "title": "Le George",
        "zipCode": "75008",
        "city": "Paris"
    },
    {
        "id": "281497",
        "title": "Le George",
        "zipCode": "75009",
        "city": "Paris"
    },
    {
        "id": "73740",
        "title": "La Rotonde",
        "zipCode": "69890",
        "city": "La Tour-de-Salvagny"
    },
    {
        "id": "6765",
        "title": "Auberge de la Diligence",
        "zipCode": "49440",
        "city": "Loiré"
    },
    {
        "id": "31135",
        "title": "La Table de Franck Putelat",
        "zipCode": "11000",
        "city": "Carcassonne"
    },
    {
        "id": "33786",
        "title": "Le 1947",
        "zipCode": "73120",
        "city": "La Perrière"
    },
    {
        "id": "2971",
        "title": "Maison Kieny",
        "zipCode": "68400",
        "city": "Riedisheim"
    },
    {
        "id": "38822",
        "title": "Paloma",
        "zipCode": "06250",
        "city": "Mougins"
    },
    {
        "id": "297223",
        "title": "Le Restaurant",
        "zipCode": "75006",
        "city": "Paris"
    },
    {
        "id": "30315",
        "title": "Les Climats",
        "zipCode": "75007",
        "city": "Paris"
    },
    {
        "id": "63173",
        "title": "Fontevraud Le Restaurant",
        "zipCode": "49590",
        "city": "Fontevraud-l'Abbaye"
    },
    {
        "id": "122",
        "title": "La Grande Cascade",
        "zipCode": "75016",
        "city": "Paris"
    },
    {
        "id": "8685",
        "title": "Villa Archange",
        "zipCode": "06110",
        "city": "Le Cannet"
    },
    {
        "id": "323145",
        "title": "Le Passe Temps",
        "zipCode": "69006",
        "city": "Lyon"
    },
    {
        "id": "3131",
        "title": "Gordon Ramsay au Trianon",
        "zipCode": "78000",
        "city": "Versailles"
    },
    {
        "id": "2698",
        "title": "Jean-Luc Tartarin",
        "zipCode": "76600",
        "city": "Le Havre"
    },
    {
        "id": "44919",
        "title": "Miraflores",
        "zipCode": "69006",
        "city": "Lyon"
    },
    {
        "id": "38155",
        "title": "Flaveur",
        "zipCode": "06000",
        "city": "Nice"
    },
    {
        "id": "25701",
        "title": "Garance",
        "zipCode": "75007",
        "city": "Paris"
    },
    {
        "id": "78706",
        "title": "Garance",
        "zipCode": "75020",
        "city": "Paris"
    },
    {
        "id": "330375",
        "title": "Le Village",
        "zipCode": "78160",
        "city": "Marly-le-Roi"
    },
    {
        "id": "77626",
        "title": "Alliance",
        "zipCode": "75005",
        "city": "Paris"
    },
    {
        "id": "4961",
        "title": "Ar Men Du",
        "zipCode": "29920",
        "city": "Névez"
    },
    {
        "id": "15264",
        "title": "Yoann Conte",
        "zipCode": "74290",
        "city": "Veyrier-du-Lac"
    },
    {
        "id": "2310",
        "title": "Auberge du Cheval Blanc",
        "zipCode": "67510",
        "city": "Lembach"
    },
    {
        "id": "201032",
        "title": "1920",
        "zipCode": "74120",
        "city": "Megève"
    },
    {
        "id": "26112",
        "title": "Le 39V",
        "zipCode": "75008",
        "city": "Paris"
    },
    {
        "id": "269053",
        "title": "Ze Kitchen Galerie",
        "zipCode": "75006",
        "city": "Paris"
    },
    {
        "id": "26201",
        "title": "Auguste",
        "zipCode": "75007",
        "city": "Paris"
    },
    {
        "id": "16314",
        "title": "Les Fresques",
        "zipCode": "24240",
        "city": "Monestier"
    },
    {
        "id": "4904",
        "title": "Hostellerie de Plaisance",
        "zipCode": "33330",
        "city": "Saint-Émilion"
    },
    {
        "id": "24272",
        "title": "St-James Paris",
        "zipCode": "75116",
        "city": "Paris"
    },
    {
        "id": "287357",
        "title": "La Palme d'Or",
        "zipCode": "06400",
        "city": "Cannes"
    },
    {
        "id": "26352",
        "title": "Le Moulin de l'Abbaye",
        "zipCode": "24310",
        "city": "Brantôme"
    },
    {
        "id": "27598",
        "title": "Les Bories",
        "zipCode": "84220",
        "city": "Gordes"
    },
    {
        "id": "4977",
        "title": "Le Saint-James",
        "zipCode": "33270",
        "city": "Bouliac"
    },
    {
        "id": "26469",
        "title": "Cyril Attrazic",
        "zipCode": "48130",
        "city": "Aumont-Aubrac"
    },
    {
        "id": "35732",
        "title": "Anne de Bretagne",
        "zipCode": "44770",
        "city": "La Plaine-sur-Mer"
    },
    {
        "id": "28453",
        "title": "1217",
        "zipCode": "69620",
        "city": "Bagnols"
    },
    {
        "id": "327881",
        "title": "La Matelote",
        "zipCode": "62200",
        "city": "Boulogne-sur-Mer"
    },
    {
        "id": "35192",
        "title": "La Matelote",
        "zipCode": "62200",
        "city": "Boulogne-sur-Mer"
    },
    {
        "id": "304421",
        "title": "Alan Geaam",
        "zipCode": "75116",
        "city": "Paris"
    },
    {
        "id": "5603",
        "title": "JY'S",
        "zipCode": "68000",
        "city": "Colmar"
    },
    {
        "id": "10332",
        "title": "Le Refuge des Gourmets",
        "zipCode": "74140",
        "city": "Machilly"
    },
    {
        "id": "26494",
        "title": "La Barbacane",
        "zipCode": "11000",
        "city": "Carcassonne"
    },
    {
        "id": "2828",
        "title": "Guy Savoy",
        "zipCode": "75008",
        "city": "Paris"
    },
    {
        "id": "57531",
        "title": "La Bastide de Moustiers",
        "zipCode": "04360",
        "city": "Moustiers-Sainte-Marie"
    },
    {
        "id": "2828",
        "title": "Le Chiberta",
        "zipCode": "75008",
        "city": "Paris"
    },
    {
        "id": "51875",
        "title": "Auberge Tiegezh",
        "zipCode": "56380",
        "city": "Guer"
    },
    {
        "id": "324443",
        "title": "Maison Clovis",
        "zipCode": "69006",
        "city": "Lyon"
    },
    {
        "id": "3552",
        "title": "Maison Lameloise",
        "zipCode": "71150",
        "city": "Chagny"
    },
    {
        "id": "9350",
        "title": "Le Petit Nice",
        "zipCode": "13007",
        "city": "Marseille"
    },
    {
        "id": "78423",
        "title": "L'Atelier de Gaztelur",
        "zipCode": "64200",
        "city": "Arcangues"
    },
    {
        "id": "58408",
        "title": "La Table du 11",
        "zipCode": "78000",
        "city": "Versailles"
    },
    {
        "id": "2876",
        "title": "Relais de la Poste",
        "zipCode": "67610",
        "city": "La Wantzenau"
    },
    {
        "id": "310829",
        "title": "Dominique Bouchet",
        "zipCode": "75008",
        "city": "Paris"
    },
    {
        "id": "3806",
        "title": "Assiette Champenoise",
        "zipCode": "51430",
        "city": "Tinqueux"
    },
    {
        "id": "36039",
        "title": "Helen",
        "zipCode": "75006",
        "city": "Paris"
    },
    {
        "id": "25985",
        "title": "Copenhague",
        "zipCode": "75008",
        "city": "Paris"
    },
    {
        "id": "46990",
        "title": "Rackham",
        "zipCode": "29680",
        "city": "Roscoff"
    },
    {
        "id": "18188",
        "title": "Le Pressoir",
        "zipCode": "56890",
        "city": "Saint-Avé"
    },
    {
        "id": "214579",
        "title": "L'Arcane",
        "zipCode": "75018",
        "city": "Paris"
    },
    {
        "id": "9611",
        "title": "Radio",
        "zipCode": "63400",
        "city": "Chamalières"
    },
    {
        "id": "5649",
        "title": "La Grand'Vigne",
        "zipCode": "33650",
        "city": "Martillac"
    },
    {
        "id": "3931",
        "title": "William Frachot",
        "zipCode": "21000",
        "city": "Dijon"
    },
    {
        "id": "10889",
        "title": "Septime",
        "zipCode": "75011",
        "city": "Paris"
    },
    {
        "id": "68308",
        "title": "Thierry Drapeau",
        "zipCode": "85260",
        "city": "Saint-Sulpice-le-Verdon"
    },
    {
        "id": "3592",
        "title": "Buerehiesel",
        "zipCode": "67000",
        "city": "Strasbourg"
    },
    {
        "id": "2934",
        "title": "Auberge du Bon Laboureur",
        "zipCode": "37150",
        "city": "Chenonceaux"
    },
    {
        "id": "18271",
        "title": "Le Clair de la Plume",
        "zipCode": "26230",
        "city": "Grignan"
    },
    {
        "id": "7872",
        "title": "Le Pavillon des Boulevards",
        "zipCode": "33000",
        "city": "Bordeaux"
    },
    {
        "id": "26327",
        "title": "Elsa",
        "zipCode": "06190",
        "city": "Roquebrune-Cap-Martin"
    },
    {
        "id": "5609",
        "title": "Chapelle Saint-Martin",
        "zipCode": "87510",
        "city": "Nieul"
    },
    {
        "id": "5355",
        "title": "Paul Bocuse",
        "zipCode": "69660",
        "city": "Collonges-au-Mont-d'Or"
    },
    {
        "id": "12900",
        "title": "Pierre Orsi",
        "zipCode": "69006",
        "city": "Lyon"
    },
    {
        "id": "26660",
        "title": "La Vague d'Or",
        "zipCode": "83990",
        "city": "Saint-Tropez"
    },
    {
        "id": "5305",
        "title": "L'Auberge Basque",
        "zipCode": "64310",
        "city": "Saint-Pée-sur-Nivelle"
    },
    {
        "id": "4294",
        "title": "La Maison dans le Parc",
        "zipCode": "54000",
        "city": "Nancy"
    },
    {
        "id": "26460",
        "title": "Ivan Vautier",
        "zipCode": "14000",
        "city": "Caen"
    },
    {
        "id": "65716",
        "title": "Pages",
        "zipCode": "75116",
        "city": "Paris"
    },
    {
        "id": "69375",
        "title": "Au Trou Gascon",
        "zipCode": "75012",
        "city": "Paris"
    },
    {
        "id": "3521",
        "title": "Le Candille",
        "zipCode": "06250",
        "city": "Mougins"
    },
    {
        "id": "294745",
        "title": "Le Fanal",
        "zipCode": "66650",
        "city": "Banyuls-sur-Mer"
    },
    {
        "id": "8976",
        "title": "L'Abeille",
        "zipCode": "75016",
        "city": "Paris"
    },
    {
        "id": "25",
        "title": "Loiseau rive Gauche",
        "zipCode": "75007",
        "city": "Paris"
    },
    {
        "id": "277471",
        "title": "Alain Llorca",
        "zipCode": "06480",
        "city": "La Colle-sur-Loup"
    },
    {
        "id": "2889",
        "title": "La Marande",
        "zipCode": "71260",
        "city": "Montbellet"
    },
    {
        "id": "79692",
        "title": "Assa",
        "zipCode": "41000",
        "city": "Blois"
    },
    {
        "id": "74933",
        "title": "Le Clarence",
        "zipCode": "75008",
        "city": "Paris"
    },
    {
        "id": "3018",
        "title": "Domaine d'Auriac",
        "zipCode": "11000",
        "city": "Carcassonne"
    },
    {
        "id": "78533",
        "title": "Le Quincangrogne",
        "zipCode": "77400",
        "city": "Dampmart"
    },
    {
        "id": "12601",
        "title": "Le Cerf",
        "zipCode": "67520",
        "city": "Marlenheim"
    },
    {
        "id": "7784",
        "title": "Auberge St-Walfrid",
        "zipCode": "57200",
        "city": "Sarreguemines"
    },
    {
        "id": "351691",
        "title": "Origine",
        "zipCode": "76000",
        "city": "Rouen"
    },
    {
        "id": "204609",
        "title": "Le Castellaras",
        "zipCode": "83440",
        "city": "Fayence"
    },
    {
        "id": "5109",
        "title": "Le Magasin aux Vivres",
        "zipCode": "57000",
        "city": "Metz"
    },
    {
        "id": "212971",
        "title": "L'Odas",
        "zipCode": "76000",
        "city": "Rouen"
    },
    {
        "id": "6018",
        "title": "Le Vieux Logis",
        "zipCode": "24510",
        "city": "Trémolat"
    },
    {
        "id": "250",
        "title": "Lasserre",
        "zipCode": "75008",
        "city": "Paris"
    },
    {
        "id": "132",
        "title": "Le Relais des Moines",
        "zipCode": "83460",
        "city": "Les Arcs"
    },
    {
        "id": "566",
        "title": "L'Almandin",
        "zipCode": "66750",
        "city": "Saint-Cyprien"
    },
    {
        "id": "32118",
        "title": "Le Musigny",
        "zipCode": "59300",
        "city": "Valenciennes"
    },
    {
        "id": "24998",
        "title": "Restaurant des Rois",
        "zipCode": "06310",
        "city": "Beaulieu-sur-Mer"
    },
    {
        "id": "345087",
        "title": "ES",
        "zipCode": "75015",
        "city": "Paris"
    },
    {
        "id": "284489",
        "title": "L'Archeste",
        "zipCode": "75116",
        "city": "Paris"
    },
    {
        "id": "3304",
        "title": "Loiseau des Vignes",
        "zipCode": "21200",
        "city": "Beaune"
    },
    {
        "id": "2788",
        "title": "La Villa Madie",
        "zipCode": "13260",
        "city": "Cassis"
    },
    {
        "id": "10382",
        "title": "Le Strasbourg",
        "zipCode": "57230",
        "city": "Bitche"
    },
    {
        "id": "14529",
        "title": "La Chassagnette",
        "zipCode": "13200",
        "city": "Arles"
    },
    {
        "id": "205737",
        "title": "Le Violon d'Ingres",
        "zipCode": "75007",
        "city": "Paris"
    },
    {
        "id": "77571",
        "title": "La Table de Manville",
        "zipCode": "13520",
        "city": "Les Baux-de-Provence"
    },
    {
        "id": "2755",
        "title": "Auberge de Clochemerle",
        "zipCode": "69460",
        "city": "Vaux-en-Beaujolais"
    },
    {
        "id": "221",
        "title": "Le France",
        "zipCode": "25130",
        "city": "Villers-le-Lac"
    },
    {
        "id": "62590",
        "title": "Pont de l'Ouysse",
        "zipCode": "46200",
        "city": "Lacave"
    },
    {
        "id": "3157",
        "title": "Gill",
        "zipCode": "76000",
        "city": "Rouen"
    },
    {
        "id": "8760",
        "title": "Saturne",
        "zipCode": "75002",
        "city": "Paris"
    },
    {
        "id": "59546",
        "title": "Saturne",
        "zipCode": "75015",
        "city": "Paris"
    },
    {
        "id": "2970",
        "title": "La Renaissance",
        "zipCode": "61200",
        "city": "Argentan"
    },
    {
        "id": "785",
        "title": "Lucas Carton",
        "zipCode": "75008",
        "city": "Paris"
    },
    {
        "id": "203143",
        "title": "Lucas Carton",
        "zipCode": "75008",
        "city": "Paris"
    },
    {
        "id": "1226",
        "title": "Le Figuier de St-Esprit",
        "zipCode": "06600",
        "city": "Antibes"
    },
    {
        "id": "8933",
        "title": "Les Clefs d'Argent",
        "zipCode": "40000",
        "city": "Mont-de-Marsan"
    },
    {
        "id": "8838",
        "title": "Henri et Joseph",
        "zipCode": "56100",
        "city": "Lorient"
    },
    {
        "id": "364505",
        "title": "Sushi B",
        "zipCode": "75012",
        "city": "Paris"
    },
    {
        "id": "276775",
        "title": "Garopapilles",
        "zipCode": "33000",
        "city": "Bordeaux"
    },
    {
        "id": "39219",
        "title": "JAN",
        "zipCode": "06300",
        "city": "Nice"
    },
    {
        "id": "36448",
        "title": "Penati al Baretto",
        "zipCode": "75008",
        "city": "Paris"
    },
    {
        "id": "1086",
        "title": "Le Vivier",
        "zipCode": "84800",
        "city": "L'Isle-sur-la-Sorgue"
    },
    {
        "id": "8628",
        "title": "Le Park 45",
        "zipCode": "06400",
        "city": "Cannes"
    },
    {
        "id": "38154",
        "title": "L'Aromate",
        "zipCode": "06000",
        "city": "Nice"
    },
    {
        "id": "5623",
        "title": "Le Corot",
        "zipCode": "92410",
        "city": "Ville-d'Avray"
    },
    {
        "id": "305067",
        "title": "Le Corot",
        "zipCode": "92410",
        "city": "Ville-d&#39;Avray"
    },
    {
        "id": "8973",
        "title": "Le Corot",
        "zipCode": "92410",
        "city": "Ville-d'Avray"
    },
    {
        "id": "346045",
        "title": "Yam'Tcha",
        "zipCode": "75001",
        "city": "Paris"
    }
]